STARLINK-1338           
1 45532U 20025B   24023.17706540  .00007522  00000+0  52329-3 0  9998
2 45532  53.0545 352.5178 0002033 138.1246 221.9899 15.06402309208052
STARLINK-1341           
1 45534U 20025D   24023.18812532  .00003074  00000+0  22516-3 0  9993
2 45534  53.0564 352.4702 0001195  75.4812 284.6309 15.06395399208059
STARLINK-1350           
1 45535U 20025E   24023.14020644 -.00002422  00000+0 -14371-3 0  9993
2 45535  53.0549 352.6703 0002017 138.6581 221.4561 15.06401181208051
STARLINK-1352           
1 45536U 20025F   24023.21023797  .00004434  00000+0  31639-3 0  9993
2 45536  53.0541 352.3649 0001260  87.7738 272.3395 15.06400092208057
STARLINK-1362           
1 45538U 20025H   24023.14291341  .00000771  00000+0  70672-4 0  9990
2 45538  53.0578 352.3878 0001751 113.1625 246.9548 15.06398581208053
STARLINK-1368           
1 45540U 20025K   24023.21392724  .00001444  00000+0  11584-3 0  9992
2 45540  53.0559 352.3528 0001788 108.8296 251.2887 15.06394382208052
STARLINK-1369           
1 45541U 20025L   24023.21761554 -.00000075  00000+0  13834-4 0  9995
2 45541  53.0556 352.3358 0001416  85.5922 274.5229 15.06393290208051
STARLINK-1371           
1 45542U 20025M   24023.18443963  .00003857  00000+0  27774-3 0  9990
2 45542  53.0548 352.4863 0001384  78.8506 281.2639 15.06396455208058
STARLINK-1372           
1 45543U 20025N   24023.22129425  .00024109  00000+0  16327-2 0  9994
2 45543  53.0556 352.3211 0001437  77.1381 282.9768 15.06381580207150
STARLINK-1373           
1 45544U 20025P   24023.17338501  .00004722  00000+0  33569-3 0  9993
2 45544  53.0552 352.5336 0001471  96.9829 263.1327 15.06396885208057
STARLINK-1374           
1 45545U 20025Q   24023.19180709  .00000175  00000+0  30626-4 0  9991
2 45545  53.0567 352.4387 0001515 121.1725 238.9412 15.06397496208036
STARLINK-1375           
1 45546U 20025R   24023.20284426 -.00014653  00000+0 -96674-3 0  9997
2 45546  53.0552 352.4036 0001216  92.7891 267.3237 15.06402795208059
STARLINK-1377           
1 45547U 20025S   24023.19918098  .00000145  00000+0  28619-4 0  9999
2 45547  53.0560 352.4200 0001437 109.3277 250.7868 15.06400652208067
STARLINK-1378           
1 45548U 20025T   24023.17606435  .00003003  00000+0  22040-3 0  9994
2 45548  53.0555 352.0147 0001387  89.0592 271.0556 15.06396204208052
STARLINK-1390           
1 45550U 20025V   24023.21663279  .00006297  00000+0  44123-3 0  9995
2 45550  53.0554 352.0767 0001435 131.2691 228.8421 15.06401490208051
STARLINK-1294           
1 45551U 20025W   24023.17891427  .00002672  00000+0  19825-3 0  9993
2 45551  53.0552 332.5069 0001395  79.2726 280.8420 15.06396792208339
STARLINK-1323           
1 45553U 20025Y   24023.12361787  .00005447  00000+0  38428-3 0  9994
2 45553  53.0556 332.7510 0001918 142.8191 217.2931 15.06400497207037
