[{"OBJECT_NAME":"STARLINK-1338","OBJECT_ID":"2020-025B","EPOCH":"2024-01-23T04:14:58.450560","MEAN_MOTION":15.06402309,"ECCENTRICITY":0.0002033,"INCLINATION":53.0545,"RA_OF_ASC_NODE":352.5178,"ARG_OF_PERICENTER":138.1246,"MEAN_ANOMALY":221.9899,"EPHEMERIS_TYPE":0,"CLASSIFICATION_TYPE":"U","NORAD_CAT_ID":45532,"ELEMENT_SET_NO":999,"REV_AT_EPOCH":20805,"BSTAR":0.00052329,"MEAN_MOTION_DOT":7.522e-5,"MEAN_MOTION_DDOT":0},{"OBJECT_NAME":"STARLINK-1341","OBJECT_ID":"2020-025D","EPOCH":"2024-01-23T04:30:54.027648","MEAN_MOTION":15.06395399,"ECCENTRICITY":0.0001195,"INCLINATION":53.0564,"RA_OF_ASC_NODE":352.4702,"ARG_OF_PERICENTER":75.4812,"MEAN_ANOMALY":284.6309,"EPHEMERIS_TYPE":0,"CLASSIFICATION_TYPE":"U","NORAD_CAT_ID":45534,"ELEMENT_SET_NO":999,"REV_AT_EPOCH":20805,"BSTAR":0.00022516,"MEAN_MOTION_DOT":3.074e-5,"MEAN_MOTION_DDOT":0},{"OBJECT_NAME":"STARLINK-1350","OBJECT_ID":"2020-025E","EPOCH":"2024-01-23T03:21:53.836416","MEAN_MOTION":15.06401181,"ECCENTRICITY":0.0002017,"INCLINATION":53.0549,"RA_OF_ASC_NODE":352.6703,"ARG_OF_PERICENTER":138.6581,"MEAN_ANOMALY":221.4561,"EPHEMERIS_TYPE":0,"CLASSIFICATION_TYPE":"U","NORAD_CAT_ID":45535,"ELEMENT_SET_NO":999,"REV_AT_EPOCH":20805,"BSTAR":-0.00014371,"MEAN_MOTION_DOT":-2.422e-5,"MEAN_MOTION_DDOT":0},{"OBJECT_NAME":"STARLINK-1352","OBJECT_ID":"2020-025F","EPOCH":"2024-01-23T05:02:44.560608","MEAN_MOTION":15.06400092,"ECCENTRICITY":0.000126,"INCLINATION":53.0541,"RA_OF_ASC_NODE":352.3649,"ARG_OF_PERICENTER":87.7738,"MEAN_ANOMALY":272.3395,"EPHEMERIS_TYPE":0,"CLASSIFICATION_TYPE":"U","NORAD_CAT_ID":45536,"ELEMENT_SET_NO":999,"REV_AT_EPOCH":20805,"BSTAR":0.00031639,"MEAN_MOTION_DOT":4.434e-5,"MEAN_MOTION_DDOT":0},{"OBJECT_NAME":"STARLINK-1362","OBJECT_ID":"2020-025H","EPOCH":"2024-01-23T03:25:47.718624","MEAN_MOTION":15.06398581,"ECCENTRICITY":0.0001751,"INCLINATION":53.0578,"RA_OF_ASC_NODE":352.3878,"ARG_OF_PERICENTER":113.1625,"MEAN_ANOMALY":246.9548,"EPHEMERIS_TYPE":0,"CLASSIFICATION_TYPE":"U","NORAD_CAT_ID":45538,"ELEMENT_SET_NO":999,"REV_AT_EPOCH":20805,"BSTAR":7.0672e-5,"MEAN_MOTION_DOT":7.71e-6,"MEAN_MOTION_DDOT":0},{"OBJECT_NAME":"STARLINK-1368","OBJECT_ID":"2020-025K","EPOCH":"2024-01-23T05:08:03.313536","MEAN_MOTION":15.06394382,"ECCENTRICITY":0.0001788,"INCLINATION":53.0559,"RA_OF_ASC_NODE":352.3528,"ARG_OF_PERICENTER":108.8296,"MEAN_ANOMALY":251.2887,"EPHEMERIS_TYPE":0,"CLASSIFICATION_TYPE":"U","NORAD_CAT_ID":45540,"ELEMENT_SET_NO":999,"REV_AT_EPOCH":20805,"BSTAR":0.00011584,"MEAN_MOTION_DOT":1.444e-5,"MEAN_MOTION_DDOT":0},{"OBJECT_NAME":"STARLINK-1369","OBJECT_ID":"2020-025L","EPOCH":"2024-01-23T05:13:21.982656","MEAN_MOTION":15.0639329,"ECCENTRICITY":0.0001416,"INCLINATION":53.0556,"RA_OF_ASC_NODE":352.3358,"ARG_OF_PERICENTER":85.5922,"MEAN_ANOMALY":274.5229,"EPHEMERIS_TYPE":0,"CLASSIFICATION_TYPE":"U","NORAD_CAT_ID":45541,"ELEMENT_SET_NO":999,"REV_AT_EPOCH":20805,"BSTAR":1.3834e-5,"MEAN_MOTION_DOT":-7.5e-7,"MEAN_MOTION_DDOT":0},{"OBJECT_NAME":"STARLINK-1371","OBJECT_ID":"2020-025M","EPOCH":"2024-01-23T04:25:35.584032","MEAN_MOTION":15.06396455,"ECCENTRICITY":0.0001384,"INCLINATION":53.0548,"RA_OF_ASC_NODE":352.4863,"ARG_OF_PERICENTER":78.8506,"MEAN_ANOMALY":281.2639,"EPHEMERIS_TYPE":0,"CLASSIFICATION_TYPE":"U","NORAD_CAT_ID":45542,"ELEMENT_SET_NO":999,"REV_AT_EPOCH":20805,"BSTAR":0.00027774,"MEAN_MOTION_DOT":3.857e-5,"MEAN_MOTION_DDOT":0},{"OBJECT_NAME":"STARLINK-1372","OBJECT_ID":"2020-025N","EPOCH":"2024-01-23T05:18:39.823200","MEAN_MOTION":15.0638158,"ECCENTRICITY":0.0001437,"INCLINATION":53.0556,"RA_OF_ASC_NODE":352.3211,"ARG_OF_PERICENTER":77.1381,"MEAN_ANOMALY":282.9768,"EPHEMERIS_TYPE":0,"CLASSIFICATION_TYPE":"U","NORAD_CAT_ID":45543,"ELEMENT_SET_NO":999,"REV_AT_EPOCH":20715,"BSTAR":0.0016327,"MEAN_MOTION_DOT":0.00024109,"MEAN_MOTION_DDOT":0},{"OBJECT_NAME":"STARLINK-1373","OBJECT_ID":"2020-025P","EPOCH":"2024-01-23T04:09:40.464864","MEAN_MOTION":15.06396885,"ECCENTRICITY":0.0001471,"INCLINATION":53.0552,"RA_OF_ASC_NODE":352.5336,"ARG_OF_PERICENTER":96.9829,"MEAN_ANOMALY":263.1327,"EPHEMERIS_TYPE":0,"CLASSIFICATION_TYPE":"U","NORAD_CAT_ID":45544,"ELEMENT_SET_NO":999,"REV_AT_EPOCH":20805,"BSTAR":0.00033569,"MEAN_MOTION_DOT":4.722e-5,"MEAN_MOTION_DDOT":0},{"OBJECT_NAME":"STARLINK-1374","OBJECT_ID":"2020-025Q","EPOCH":"2024-01-23T04:36:12.132576","MEAN_MOTION":15.06397496,"ECCENTRICITY":0.0001515,"INCLINATION":53.0567,"RA_OF_ASC_NODE":352.4387,"ARG_OF_PERICENTER":121.1725,"MEAN_ANOMALY":238.9412,"EPHEMERIS_TYPE":0,"CLASSIFICATION_TYPE":"U","NORAD_CAT_ID":45545,"ELEMENT_SET_NO":999,"REV_AT_EPOCH":20803,"BSTAR":3.0626e-5,"MEAN_MOTION_DOT":1.75e-6,"MEAN_MOTION_DDOT":0},{"OBJECT_NAME":"STARLINK-1375","OBJECT_ID":"2020-025R","EPOCH":"2024-01-23T04:52:05.744064","MEAN_MOTION":15.06402795,"ECCENTRICITY":0.0001216,"INCLINATION":53.0552,"RA_OF_ASC_NODE":352.4036,"ARG_OF_PERICENTER":92.7891,"MEAN_ANOMALY":267.3237,"EPHEMERIS_TYPE":0,"CLASSIFICATION_TYPE":"U","NORAD_CAT_ID":45546,"ELEMENT_SET_NO":999,"REV_AT_EPOCH":20805,"BSTAR":-0.00096674,"MEAN_MOTION_DOT":-0.00014653,"MEAN_MOTION_DDOT":0},{"OBJECT_NAME":"STARLINK-1377","OBJECT_ID":"2020-025S","EPOCH":"2024-01-23T04:46:49.236672","MEAN_MOTION":15.06400652,"ECCENTRICITY":0.0001437,"INCLINATION":53.056,"RA_OF_ASC_NODE":352.42,"ARG_OF_PERICENTER":109.3277,"MEAN_ANOMALY":250.7868,"EPHEMERIS_TYPE":0,"CLASSIFICATION_TYPE":"U","NORAD_CAT_ID":45547,"ELEMENT_SET_NO":999,"REV_AT_EPOCH":20806,"BSTAR":2.8619e-5,"MEAN_MOTION_DOT":1.45e-6,"MEAN_MOTION_DDOT":0},{"OBJECT_NAME":"STARLINK-1378","OBJECT_ID":"2020-025T","EPOCH":"2024-01-23T04:13:31.959840","MEAN_MOTION":15.06396204,"ECCENTRICITY":0.0001387,"INCLINATION":53.0555,"RA_OF_ASC_NODE":352.0147,"ARG_OF_PERICENTER":89.0592,"MEAN_ANOMALY":271.0556,"EPHEMERIS_TYPE":0,"CLASSIFICATION_TYPE":"U","NORAD_CAT_ID":45548,"ELEMENT_SET_NO":999,"REV_AT_EPOCH":20805,"BSTAR":0.0002204,"MEAN_MOTION_DOT":3.003e-5,"MEAN_MOTION_DDOT":0},{"OBJECT_NAME":"STARLINK-1390","OBJECT_ID":"2020-025V","EPOCH":"2024-01-23T05:11:57.073056","MEAN_MOTION":15.0640149,"ECCENTRICITY":0.0001435,"INCLINATION":53.0554,"RA_OF_ASC_NODE":352.0767,"ARG_OF_PERICENTER":131.2691,"MEAN_ANOMALY":228.8421,"EPHEMERIS_TYPE":0,"CLASSIFICATION_TYPE":"U","NORAD_CAT_ID":45550,"ELEMENT_SET_NO":999,"REV_AT_EPOCH":20805,"BSTAR":0.00044123,"MEAN_MOTION_DOT":6.297e-5,"MEAN_MOTION_DDOT":0},{"OBJECT_NAME":"STARLINK-1294","OBJECT_ID":"2020-025W","EPOCH":"2024-01-23T04:17:38.192928","MEAN_MOTION":15.06396792,"ECCENTRICITY":0.0001395,"INCLINATION":53.0552,"RA_OF_ASC_NODE":332.5069,"ARG_OF_PERICENTER":79.2726,"MEAN_ANOMALY":280.842,"EPHEMERIS_TYPE":0,"CLASSIFICATION_TYPE":"U","NORAD_CAT_ID":45551,"ELEMENT_SET_NO":999,"REV_AT_EPOCH":20833,"BSTAR":0.00019825,"MEAN_MOTION_DOT":2.672e-5,"MEAN_MOTION_DDOT":0},{"OBJECT_NAME":"STARLINK-1323","OBJECT_ID":"2020-025Y","EPOCH":"2024-01-23T02:58:00.583968","MEAN_MOTION":15.06400497,"ECCENTRICITY":0.0001918,"INCLINATION":53.0556,"RA_OF_ASC_NODE":332.751,"ARG_OF_PERICENTER":142.8191,"MEAN_ANOMALY":217.2931,"EPHEMERIS_TYPE":0,"CLASSIFICATION_TYPE":"U","NORAD_CAT_ID":45553,"ELEMENT_SET_NO":999,"REV_AT_EPOCH":20703,"BSTAR":0.00038428,"MEAN_MOTION_DOT":5.447e-5,"MEAN_MOTION_DDOT":0}]
